NORAD_CAT_ID,OBJECT_NAME,OBJECT_TYPE,EPOCH,MEAN_MOTION,ECCENTRICITY,INCLINATION,RA_OF_ASC_NODE,ARG_OF_PERICENTER,MEAN_ANOMALY,BSTAR,MEAN_MOTION_DOT,MEAN_MOTION_DDOT,TLE_LINE0,TLE_LINE1,TLE_LINE2,SEMIMAJOR_AXIS,PERIOD,APOGEE,PERIGEE,DECAYED
51988.0,STARLINK-3640,PAYLOAD,2024-04-09 19:08:05,15.08844482,0.000235,53.2179,296.5725,79.0932,281.0325,9.4936e-05,1.223e-05,0.0,0 STARLINK-3640,1 51988U 22025AJ  24100.79728872  .00001223  00000-0  94936-4 0  9992,2 51988  53.2179 296.5725 0002350  79.0932 281.0325 15.08844482116661,6917.867,95.437,541.357,538.106,0.0
51988.0,STARLINK-3640,PAYLOAD,2024-04-09 22:18:52,15.08831926,0.0001366,53.2181,295.9777,79.4827,280.6319,-4.2703e-06,-3.56e-06,0.0,0 STARLINK-3640,1 51988U 22025AJ  24100.92977757 -.00000356  00000-0 -42703-5 0  9999,2 51988  53.2181 295.9777 0001366  79.4827 280.6319 15.08831926115573,6917.905,95.438,540.715,538.825,0.0
51988.0,STARLINK-3640,PAYLOAD,2024-04-10 12:37:20,15.08836353,0.0001515,53.2192,293.301,79.4632,280.6531,7.6795e-06,-1.66e-06,0.0,0 STARLINK-3640,1 51988U 22025AJ  24101.52593696 -.00000166  00000-0  76795-5 0  9998,2 51988  53.2192 293.3010 0001515  79.4632 280.6531 15.08836353115662,6917.892,95.438,540.805,538.708,0.0
51988.0,STARLINK-3640,PAYLOAD,2024-04-10 18:58:53,15.08842295,0.0001523,53.2162,292.1113,78.7391,281.3772,1.8031e-05,-1e-08,0.0,0 STARLINK-3640,1 51988U 22025AJ  24101.79089243 -.00000001  00000-0  18031-4 0  9991,2 51988  53.2162 292.1113 0001523  78.7391 281.3772 15.08842295116818,6917.873,95.437,540.792,538.685,0.0
51988.0,STARLINK-3640,PAYLOAD,2024-04-11 06:06:35,15.08834374,0.0001359,53.2157,290.0296,72.8511,287.263,0.00015952,2.251e-05,0.0,0 STARLINK-3640,1 51988U 22025AJ  24102.25457271  .00002251  00000-0  15952-3 0  9999,2 51988  53.2157 290.0296 0001359  72.8511 287.2630 15.08834374115778,6917.898,95.438,540.703,538.822,0.0
51988.0,STARLINK-3640,PAYLOAD,2024-04-11 18:49:40,15.08841256,0.000124,53.2179,287.6489,82.7234,277.3899,0.00015953,2.252e-05,0.0,0 STARLINK-3640,1 51988U 22025AJ  24102.78449134  .00002252  00000-0  15953-3 0  9998,2 51988  53.2179 287.6489 0001240  82.7234 277.3899 15.08841256115852,6917.877,95.437,540.599,538.884,0.0
51988.0,STARLINK-3640,PAYLOAD,2024-04-12 12:18:54,15.0884071,0.0001254,53.2178,284.3777,84.1906,275.923,8.9261e-05,1.133e-05,0.0,0 STARLINK-3640,1 51988U 22025AJ  24103.51313474  .00001133  00000-0  89261-4 0  9998,2 51988  53.2178 284.3777 0001254  84.1906 275.9230 15.08840710117075,6917.878,95.438,540.611,538.876,0.0
51988.0,STARLINK-3640,PAYLOAD,2024-04-12 15:29:41,15.08841309,0.0001249,53.2178,283.783,83.7243,276.3891,9.0734e-05,1.157e-05,0.0,0 STARLINK-3640,1 51988U 22025AJ  24103.64561419  .00001157  00000-0  90734-4 0  9999,2 51988  53.2178 283.7830 0001249  83.7243 276.3891 15.08841309115982,6917.876,95.437,540.605,538.877,0.0
51988.0,STARLINK-3640,PAYLOAD,2024-04-13 12:09:41,15.08842595,0.0001259,53.2175,279.9178,83.9051,276.2085,6.6952e-05,7.78e-06,0.0,0 STARLINK-3640,1 51988U 22025AJ  24104.50673393  .00000778  00000-0  66952-4 0  9993,2 51988  53.2175 279.9178 0001259  83.9051 276.2085 15.08842595116119,6917.872,95.437,540.608,538.866,0.0
51988.0,STARLINK-3640,PAYLOAD,2024-04-13 18:31:14,15.08844826,0.0001275,53.218,278.7287,84.0997,276.014,7.1281e-05,8.47e-06,0.0,0 STARLINK-3640,1 51988U 22025AJ  24104.77169168  .00000847  00000-0  71281-4 0  9990,2 51988  53.2180 278.7287 0001275  84.0997 276.0140 15.08844826117268,6917.866,95.437,540.613,538.849,0.0
51988.0,STARLINK-3640,PAYLOAD,2024-04-14 18:22:01,15.08840572,0.0001278,53.2183,274.2672,92.7061,267.4078,7.295e-05,8.73e-06,0.0,0 STARLINK-3640,1 51988U 22025AJ  24105.76529565  .00000873  00000-0  72950-4 0  9994,2 51988  53.2183 274.2672 0001278  92.7061 267.4078 15.08840572117416,6917.879,95.438,540.628,538.86,0.0
51988.0,STARLINK-3640,PAYLOAD,2024-04-15 10:15:50,15.08866729,0.00012,53.2175,271.2934,64.621,295.4907,0.00020619,2.998e-05,0.0,0 STARLINK-3640,1 51988U 22025AJ  24106.42767126  .00002998  00000-0  20619-3 0  9999,2 51988  53.2175 271.2934 0001200  64.6210 295.4907 15.08866729117519,6917.799,95.436,540.494,538.834,0.0
51988.0,STARLINK-3640,PAYLOAD,2024-04-15 19:48:11,15.08839099,5.17e-05,53.2188,269.5095,42.8453,317.2579,4.0452e-05,3.56e-06,0.0,0 STARLINK-3640,1 51988U 22025AJ  24106.82512996  .00000356  00000-0  40452-4 0  9990,2 51988  53.2188 269.5095 0000517  42.8453 317.2579 15.08839099117572,6917.883,95.438,540.106,539.39,0.0
51988.0,STARLINK-3640,PAYLOAD,2024-04-15 21:23:34,15.08841794,1.16e-05,53.2194,269.2139,273.8923,86.2056,5.0498e-05,5.16e-06,0.0,0 STARLINK-3640,1 51988U 22025AJ  24106.89136601  .00000516  00000-0  50498-4 0  9991,2 51988  53.2194 269.2139 0000116 273.8923  86.2056 15.08841794116474,6917.875,95.437,539.82,539.66,0.0
51988.0,STARLINK-3640,PAYLOAD,2024-04-16 14:52:49,15.08834892,0.0001648,53.2192,265.9434,31.7043,328.4048,5.5897e-05,6.02e-06,0.0,0 STARLINK-3640,1 51988U 22025AJ  24107.62002008  .00000602  00000-0  55897-4 0  9990,2 51988  53.2192 265.9434 0001648  31.7043 328.4048 15.08834892116583,6917.896,95.438,540.901,538.621,0.0
51988.0,STARLINK-3640,PAYLOAD,2024-04-16 18:03:34,15.08859939,0.0001156,53.2174,265.3457,78.7886,281.3236,0.00031953,4.804e-05,0.0,0 STARLINK-3640,1 51988U 22025AJ  24107.75248145  .00004804  00000-0  31953-3 0  9992,2 51988  53.2174 265.3457 0001156  78.7886 281.3236 15.08859939117713,6917.819,95.436,540.484,538.885,0.0
51988.0,STARLINK-3640,PAYLOAD,2024-04-17 09:57:27,15.08822328,2.7e-05,53.2183,262.3744,221.5335,138.5637,-0.00010253,-1.918e-05,0.0,0 STARLINK-3640,1 51988U 22025AJ  24108.41489796 -.00001918  00000-0 -10253-3 0  9990,2 51988  53.2183 262.3744 0000270 221.5335 138.5637 15.08822328117813,6917.934,95.439,539.986,539.613,0.0
51988.0,STARLINK-3640,PAYLOAD,2024-04-17 14:43:36,15.08820223,1.97e-05,53.2183,261.4822,195.5437,164.5549,-0.00010752,-1.997e-05,0.0,0 STARLINK-3640,1 51988U 22025AJ  24108.61362196 -.00001997  00000-0 -10752-3 0  9997,2 51988  53.2183 261.4822 0000197 195.5437 164.5549 15.08820223116734,6917.941,95.439,539.942,539.67,0.0
51988.0,STARLINK-3640,PAYLOAD,2024-04-17 17:54:23,15.0882089,0.0001212,53.217,260.8884,59.3739,300.7372,7.4492e-05,8.97e-06,0.0,0 STARLINK-3640,1 51988U 22025AJ  24108.74610930  .00000897  00000-0  74492-4 0  9991,2 51988  53.2170 260.8884 0001212  59.3739 300.7372 15.08820890116752,6917.939,95.439,540.642,538.965,0.0
51988.0,STARLINK-3640,PAYLOAD,2024-04-18 09:48:15,15.08833834,0.0001329,53.2174,257.9114,112.9813,247.1319,0.00016856,2.395e-05,0.0,0 STARLINK-3640,1 51988U 22025AJ  24109.40850825  .00002395  00000-0  16856-3 0  9998,2 51988  53.2174 257.9114 0001329 112.9813 247.1319 15.08833834117968,6917.899,95.438,540.684,538.845,0.0
51988.0,STARLINK-3640,PAYLOAD,2024-04-18 16:09:47,15.08842275,0.0001946,53.2166,256.7314,58.7901,301.3282,0.00026782,3.977e-05,0.0,0 STARLINK-3640,1 51988U 22025AJ  24109.67346640  .00003977  00000-0  26782-3 0  9998,2 51988  53.2166 256.7314 0001946  58.7901 301.3282 15.08842275116890,6917.873,95.437,541.085,538.392,0.0
51988.0,STARLINK-3640,PAYLOAD,2024-04-19 12:49:48,15.08846032,0.0001739,53.2167,252.8608,96.5117,263.6073,0.0003535,5.343e-05,0.0,0 STARLINK-3640,1 51988U 22025AJ  24110.53458599  .00005343  00000-0  35350-3 0  9992,2 51988  53.2167 252.8608 0001739  96.5117 263.6073 15.08846032118135,6917.862,95.437,540.93,538.524,0.0
51988.0,STARLINK-3640,PAYLOAD,2024-04-19 14:25:11,15.08847288,0.0001772,53.2174,252.5637,94.5884,265.5311,0.00034474,5.204e-05,0.0,0 STARLINK-3640,1 51988U 22025AJ  24110.60082543  .00005204  00000-0  34474-3 0  9994,2 51988  53.2174 252.5637 0001772  94.5884 265.5311 15.08847288117036,6917.858,95.437,540.949,538.497,0.0
51988.0,STARLINK-3640,PAYLOAD,2024-04-19 16:00:34,15.08852728,0.0001576,53.2175,252.2611,110.1876,249.9286,0.0003794,5.757e-05,0.0,0 STARLINK-3640,1 51988U 22025AJ  24110.66706102  .00005757  00000-0  37940-3 0  9998,2 51988  53.2175 252.2611 0001576 110.1876 249.9286 15.08852728117047,6917.841,95.437,540.797,538.616,0.0
51988.0,STARLINK-3640,PAYLOAD,2024-04-20 12:40:34,15.08807283,0.0001375,53.2173,248.4,55.1317,304.9804,-0.0010014,-0.00016175,0.0,0 STARLINK-3640,1 51988U 22025AJ  24111.52817663 -.00016175  00000-0 -10014-2 0  9999,2 51988  53.2173 248.4000 0001375  55.1317 304.9804 15.08807283118280,6917.98,95.44,540.797,538.894,0.0
51988.0,STARLINK-3640,PAYLOAD,2024-04-20 14:15:57,15.08805964,0.000138,53.2173,248.1025,80.6685,279.4463,-0.0010334,-0.00016681,0.0,0 STARLINK-3640,1 51988U 22025AJ  24111.59441651 -.00016681  00000-0 -10334-2 0  9993,2 51988  53.2173 248.1025 0001380  80.6685 279.4463 15.08805964117180,6917.984,95.44,540.804,538.895,0.0
51988.0,STARLINK-3640,PAYLOAD,2024-04-20 15:51:20,15.08806053,0.0001565,53.2171,247.8063,87.9084,272.2087,-0.0010242,-0.00016536,0.0,0 STARLINK-3640,1 51988U 22025AJ  24111.66065717 -.00016536  00000-0 -10242-2 0  9993,2 51988  53.2171 247.8063 0001565  87.9084 272.2087 15.08806053117198,6917.984,95.44,540.932,538.766,0.0
51988.0,STARLINK-3640,PAYLOAD,2024-04-21 14:06:44,15.08849059,0.0001663,53.2178,243.6354,112.2324,247.8844,0.00016918,2.406e-05,0.0,0 STARLINK-3640,1 51988U 22025AJ  24112.58801672  .00002406  00000-0  16918-3 0  9999,2 51988  53.2178 243.6354 0001663 112.2324 247.8844 15.08849059117338,6917.853,95.437,540.868,538.567,0.0
51988.0,STARLINK-3640,PAYLOAD,2024-04-21 18:52:53,15.08851913,0.0001612,53.2175,242.7428,105.2003,254.9167,0.00025669,3.801e-05,0.0,0 STARLINK-3640,1 51988U 22025AJ  24112.78673581  .00003801  00000-0  25669-3 0  9990,2 51988  53.2175 242.7428 0001612 105.2003 254.9167 15.08851913117369,6917.844,95.437,540.824,538.594,0.0
51988.0,STARLINK-3640,PAYLOAD,2024-04-22 13:57:32,15.0882732,0.0001486,53.2177,239.177,108.6218,251.4936,0.00044329,6.772e-05,0.0,0 STARLINK-3640,1 51988U 22025AJ  24113.58163064  .00006772  00000-0  44329-3 0  9993,2 51988  53.2177 239.1770 0001486 108.6218 251.4936 15.08827320118592,6917.919,95.438,540.812,538.756,0.0
